{
  "type": "FeatureCollection",
  "features": [
    {
      "type": "Feature",
      "properties": {
        "norad_id": 46995,
        "name": "FENGYUN 1C DEB",
        "group": "fengyun-1c-debris",
        "lat": 26.157895805112084,
        "lon": 68.3843374641611,
        "alt_km": 913.9618082259203,
        "timestamp": "2025-12-16T23:36:36.487443+00:00",
        "meta_object_name": "FENGYUN 1C DEB",
        "meta_object_id": "1999-025EZV",
        "meta_epoch": "2025-12-16T04:25:46.422048",
        "meta_mean_motion": 13.86371708,
        "meta_eccentricity": 0.01895573,
        "meta_inclination": 98.5939,
        "meta_ra_of_asc_node": 71.9093,
        "meta_arg_of_pericenter": 108.8675,
        "meta_mean_anomaly": 253.3141,
        "meta_ephemeris_type": 0,
        "meta_classification_type": "U",
        "meta_norad_cat_id": 46995,
        "meta_element_set_no": 999,
        "meta_rev_at_epoch": 60516,
        "meta_bstar": 0.001765213,
        "meta_mean_motion_dot": 2.317e-05,
        "meta_mean_motion_ddot": 0,
        "tle_line1": "1 46995U 99025EZV 25350.18456507  .00002317  00000+0  17652-2 0  9994",
        "tle_line2": "2 46995  98.5939  71.9093 0189557 108.8675 253.3141 13.86371708605168"
      },
      "geometry": {
        "type": "Point",
        "coordinates": [
          68.3843374641611,
          26.157895805112084
        ]
      }
    },
    {
      "type": "Feature",
      "properties": {
        "norad_id": 46997,
        "name": "FENGYUN 1C DEB",
        "group": "fengyun-1c-debris",
        "lat": -80.671406294952,
        "lon": 144.78243815517087,
        "alt_km": 796.0669938525616,
        "timestamp": "2025-12-16T23:36:36.487453+00:00",
        "meta_object_name": "FENGYUN 1C DEB",
        "meta_object_id": "1999-025EZX",
        "meta_epoch": "2025-12-14T20:44:05.032032",
        "meta_mean_motion": 14.28011803,
        "meta_eccentricity": 0.00246638,
        "meta_inclination": 98.5587,
        "meta_ra_of_asc_node": 29.1623,
        "meta_arg_of_pericenter": 329.7037,
        "meta_mean_anomaly": 205.3871,
        "meta_ephemeris_type": 0,
        "meta_classification_type": "U",
        "meta_norad_cat_id": 46997,
        "meta_element_set_no": 999,
        "meta_rev_at_epoch": 62481,
        "meta_bstar": 0.00094694744,
        "meta_mean_motion_dot": 2.314e-05,
        "meta_mean_motion_ddot": 0,
        "tle_line1": "1 46997U 99025EZX 25348.86394713  .00002314  00000+0  94695-3 0  9998",
        "tle_line2": "2 46997  98.5587  29.1623 0024663 329.7037 205.3871 14.28011803624819"
      },
      "geometry": {
        "type": "Point",
        "coordinates": [
          144.78243815517087,
          -80.671406294952
        ]
      }
    },
    {
      "type": "Feature",
      "properties": {
        "norad_id": 47001,
        "name": "FENGYUN 1C DEB",
        "group": "fengyun-1c-debris",
        "lat": 80.67090856631994,
        "lon": -44.050227422898374,
        "alt_km": 734.2885821821947,
        "timestamp": "2025-12-16T23:36:36.487463+00:00",
        "meta_object_name": "FENGYUN 1C DEB",
        "meta_object_id": "1999-025FAB",
        "meta_epoch": "2025-12-15T22:09:16.306560",
        "meta_mean_motion": 14.38495721,
        "meta_eccentricity": 0.00512528,
        "meta_inclination": 99.3068,
        "meta_ra_of_asc_node": 48.2252,
        "meta_arg_of_pericenter": 39.7651,
        "meta_mean_anomaly": 320.7273,
        "meta_ephemeris_type": 0,
        "meta_classification_type": "U",
        "meta_norad_cat_id": 47001,
        "meta_element_set_no": 999,
        "meta_rev_at_epoch": 73960,
        "meta_bstar": 0.0010268009,
        "meta_mean_motion_dot": 3.136e-05,
        "meta_mean_motion_ddot": 0,
        "tle_line1": "1 47001U 99025FAB 25349.92310540  .00003136  00000+0  10268-2 0  9995",
        "tle_line2": "2 47001  99.3068  48.2252 0051252  39.7651 320.7273 14.38495721739601"
      },
      "geometry": {
        "type": "Point",
        "coordinates": [
          -44.050227422898374,
          80.67090856631994
        ]
      }
    },
    {
      "type": "Feature",
      "properties": {
        "norad_id": 47005,
        "name": "FENGYUN 1C DEB",
        "group": "fengyun-1c-debris",
        "lat": 70.11148020037386,
        "lon": -71.90200550891099,
        "alt_km": 873.482245145955,
        "timestamp": "2025-12-16T23:36:36.487473+00:00",
        "meta_object_name": "FENGYUN 1C DEB",
        "meta_object_id": "1999-025FAF",
        "meta_epoch": "2025-12-03T11:49:12.815616",
        "meta_mean_motion": 14.10913141,
        "meta_eccentricity": 0.00635736,
        "meta_inclination": 99.6019,
        "meta_ra_of_asc_node": 65.7889,
        "meta_arg_of_pericenter": 267.3996,
        "meta_mean_anomaly": 108.1197,
        "meta_ephemeris_type": 0,
        "meta_classification_type": "U",
        "meta_norad_cat_id": 47005,
        "meta_element_set_no": 999,
        "meta_rev_at_epoch": 82637,
        "meta_bstar": 0.0032335345,
        "meta_mean_motion_dot": 5.865e-05,
        "meta_mean_motion_ddot": 0,
        "tle_line1": "1 47005U 99025FAF 25337.49250944  .00005865  00000+0  32335-2 0  9999",
        "tle_line2": "2 47005  99.6019  65.7889 0063573 267.3996 108.1197 14.10913141826379"
      },
      "geometry": {
        "type": "Point",
        "coordinates": [
          -71.90200550891099,
          70.11148020037386
        ]
      }
    },
    {
      "type": "Feature",
      "properties": {
        "norad_id": 47007,
        "name": "FENGYUN 1C DEB",
        "group": "fengyun-1c-debris",
        "lat": 27.463632238028083,
        "lon": -151.7854466785877,
        "alt_km": 734.509812096845,
        "timestamp": "2025-12-16T23:36:36.487484+00:00",
        "meta_object_name": "FENGYUN 1C DEB",
        "meta_object_id": "1999-025FAH",
        "meta_epoch": "2025-12-16T08:00:56.950272",
        "meta_mean_motion": 13.97251412,
        "meta_eccentricity": 0.02367807,
        "meta_inclination": 98.2082,
        "meta_ra_of_asc_node": 211.9358,
        "meta_arg_of_pericenter": 43.616,
        "meta_mean_anomaly": 318.3456,
        "meta_ephemeris_type": 0,
        "meta_classification_type": "U",
        "meta_norad_cat_id": 47007,
        "meta_element_set_no": 999,
        "meta_rev_at_epoch": 78899,
        "meta_bstar": 0.0020204307,
        "meta_mean_motion_dot": 3.554e-05,
        "meta_mean_motion_ddot": 0,
        "tle_line1": "1 47007U 99025FAH 25350.33399248  .00003554  00000+0  20204-2 0  9995",
        "tle_line2": "2 47007  98.2082 211.9358 0236780  43.6160 318.3456 13.97251412788990"
      },
      "geometry": {
        "type": "Point",
        "coordinates": [
          -151.7854466785877,
          27.463632238028083
        ]
      }
    },
    {
      "type": "Feature",
      "properties": {
        "norad_id": 47009,
        "name": "FENGYUN 1C DEB",
        "group": "fengyun-1c-debris",
        "lat": 41.93116020740355,
        "lon": 162.41733233089084,
        "alt_km": 1204.5909674657514,
        "timestamp": "2025-12-16T23:36:36.487513+00:00",
        "meta_object_name": "FENGYUN 1C DEB",
        "meta_object_id": "1999-025FAK",
        "meta_epoch": "2025-12-02T05:09:31.123584",
        "meta_mean_motion": 13.37303446,
        "meta_eccentricity": 0.0352227,
        "meta_inclination": 98.9376,
        "meta_ra_of_asc_node": 321.2954,
        "meta_arg_of_pericenter": 285.6992,
        "meta_mean_anomaly": 70.555,
        "meta_ephemeris_type": 0,
        "meta_classification_type": "U",
        "meta_norad_cat_id": 47009,
        "meta_element_set_no": 999,
        "meta_rev_at_epoch": 58668,
        "meta_bstar": 0.00057132,
        "meta_mean_motion_dot": 3.87e-06,
        "meta_mean_motion_ddot": 0,
        "tle_line1": "1 47009U 99025FAK 25336.21494356  .00000387  00000+0  57132-3 0  9996",
        "tle_line2": "2 47009  98.9376 321.2954 0352227 285.6992  70.5550 13.37303446586681"
      },
      "geometry": {
        "type": "Point",
        "coordinates": [
          162.41733233089084,
          41.93116020740355
        ]
      }
    },
    {
      "type": "Feature",
      "properties": {
        "norad_id": 47012,
        "name": "FENGYUN 1C DEB",
        "group": "fengyun-1c-debris",
        "lat": 71.25181827921384,
        "lon": -157.86680880832893,
        "alt_km": 851.8936070913369,
        "timestamp": "2025-12-16T23:36:36.487525+00:00",
        "meta_object_name": "FENGYUN 1C DEB",
        "meta_object_id": "1999-025FAN",
        "meta_epoch": "2025-12-05T22:22:36.481152",
        "meta_mean_motion": 13.77908149,
        "meta_eccentricity": 0.01638485,
        "meta_inclination": 98.755,
        "meta_ra_of_asc_node": 218.9381,
        "meta_arg_of_pericenter": 81.7177,
        "meta_mean_anomaly": 280.2518,
        "meta_ephemeris_type": 0,
        "meta_classification_type": "U",
        "meta_norad_cat_id": 47012,
        "meta_element_set_no": 999,
        "meta_rev_at_epoch": 54479,
        "meta_bstar": 0.00065808903,
        "meta_mean_motion_dot": 6.91e-06,
        "meta_mean_motion_ddot": 0,
        "tle_line1": "1 47012U 99025FAN 25339.93236668  .00000691  00000+0  65809-3 0  9990",
        "tle_line2": "2 47012  98.7550 218.9381 0163848  81.7177 280.2518 13.77908149544797"
      },
      "geometry": {
        "type": "Point",
        "coordinates": [
          -157.86680880832893,
          71.25181827921384
        ]
      }
    }
  ]
}